COMMENT,ORIGINATOR,NORAD_CAT_ID,OBJECT_NAME,OBJECT_TYPE,CLASSIFICATION_TYPE,INTLDES,EPOCH,EPOCH_MICROSECONDS,MEAN_MOTION,ECCENTRICITY,INCLINATION,RA_OF_ASC_NODE,ARG_OF_PERICENTER,MEAN_ANOMALY,EPHEMERIS_TYPE,ELEMENT_SET_NO,REV_AT_EPOCH,BSTAR,MEAN_MOTION_DOT,MEAN_MOTION_DDOT,FILE,TLE_LINE0,TLE_LINE1,TLE_LINE2,OBJECT_ID,OBJECT_NUMBER,SEMIMAJOR_AXIS,PERIOD,APOGEE,PERIGEE,DECAYED
GENERATED VIA SPACETRACK.ORG API,18 SPCS,38778,ASTRA 2F,PAYLOAD,U,12051A,2024-06-28 20:37:42,674880,1.0027366,0.0002488,0.0918,256.6067,280.7849,77.6674,0,999,3392,0,1.53e-06,0,4353920,0 ASTRA 2F,1 38778U 12051A   24180.85952170  .00000153  00000-0  00000-0 0  9993,2 38778   0.0918 256.6067 0002488 280.7849  77.6674  1.00273660 33924,2012-051A,38778,42164.206,1436.07,35796.562,35775.581,0
GENERATED VIA SPACETRACK.ORG API,18 SPCS,38778,ASTRA 2F,PAYLOAD,U,12051A,2024-06-29 12:59:11,215392,1.0027401,0.0002524,0.0903,256.1414,282.31,322.654,0,999,3393,0,1.54e-06,0,4354599,0 ASTRA 2F,1 38778U 12051A   24181.54110203  .00000154  00000-0  00000-0 0  9994,2 38778   0.0903 256.1414 0002524 282.3100 322.6540  1.00274010 33934,2012-051A,38778,42164.108,1436.065,35796.615,35775.331,0
GENERATED VIA SPACETRACK.ORG API,18 SPCS,38778,ASTRA 2F,PAYLOAD,U,12051A,2024-06-29 20:22:12,914976,1.00274191,0.0002543,0.0895,255.992,283.0053,73.171,0,999,3393,0,1.54e-06,0,4354925,0 ASTRA 2F,1 38778U 12051A   24181.84876059  .00000154  00000-0  00000-0 0  9995,2 38778   0.0895 255.9920 0002543 283.0053  73.1710  1.00274191 33936,2012-051A,38778,42164.057,1436.062,35796.645,35775.2,0
GENERATED VIA SPACETRACK.ORG API,18 SPCS,38778,ASTRA 2F,PAYLOAD,U,12051A,2024-06-30 01:13:12,667584,1.00274307,0.0002564,0.0891,255.7941,283.6819,145.6426,0,999,4310,0,1.54e-06,0,4355146,0 ASTRA 2F,1 38778U 12051A   24182.05084106  .00000154  00000-0  00000+0 0  9992,2 38778   0.0891 255.7941 0002564 283.6819 145.6426  1.00274307 43100,2012-051A,38778,42164.025,1436.061,35796.701,35775.079,0
GENERATED VIA SPACETRACK.ORG API,18 SPCS,38778,ASTRA 2F,PAYLOAD,U,12051A,2024-06-30 12:14:42,562176,1.00274546,0.0002578,0.0881,255.4596,284.5972,310.8938,0,999,3394,0,1.54e-06,0,4355600,0 ASTRA 2F,1 38778U 12051A   24182.51021484  .00000154  00000-0  00000-0 0  9994,2 38778   0.0881 255.4596 0002578 284.5972 310.8938  1.00274546 33947,2012-051A,38778,42163.958,1436.057,35796.693,35774.953,0
GENERATED VIA SPACETRACK.ORG API,18 SPCS,38778,ASTRA 2F,PAYLOAD,U,12051A,2024-07-01 01:11:42,673344,1.00266076,0.0002018,0.0869,255.0801,275.9002,154.7312,0,999,4311,0,1.53e-06,0,4356197,0 ASTRA 2F,1 38778U 12051A   24183.04979946  .00000153  00000-0  00000+0 0  9996,2 38778   0.0869 255.0801 0002018 275.9002 154.7312  1.00266076 43115,2012-051A,38778,42166.332,1436.179,35796.707,35779.688,0
GENERATED VIA SPACETRACK.ORG API,18 SPCS,38778,ASTRA 2F,PAYLOAD,U,12051A,2024-07-01 11:21:10,650816,1.0026759,0.0001976,0.0859,254.721,274.9027,308.8665,0,999,3395,0,1.53e-06,0,4356582,0 ASTRA 2F,1 38778U 12051A   24183.47303994  .00000153  00000-0  00000-0 0  9998,2 38778   0.0859 254.7210 0001976 274.9027 308.8665  1.00267590 33958,2012-051A,38778,42165.908,1436.157,35796.105,35779.441,0
GENERATED VIA SPACETRACK.ORG API,18 SPCS,38778,ASTRA 2F,PAYLOAD,U,12051A,2024-07-01 20:30:42,888384,1.00267904,0.0002006,0.085,254.4457,275.7013,86.0981,0,999,4311,0,1.52e-06,0,4356830,0 ASTRA 2F,1 38778U 12051A   24183.85466306  .00000152  00000-0  00000+0 0  9995,2 38778   0.0850 254.4457 0002006 275.7013  86.0981  1.00267904 43112,2012-051A,38778,42165.82,1436.152,35796.143,35779.227,0
GENERATED VIA SPACETRACK.ORG API,18 SPCS,38778,ASTRA 2F,PAYLOAD,U,12051A,2024-07-01 21:37:42,691584,1.00267934,0.0002009,0.085,254.3588,275.969,102.7119,0,999,3395,0,1.52e-06,0,4357216,0 ASTRA 2F,1 38778U 12051A   24183.90118856  .00000152  00000-0  00000-0 0  9996,2 38778   0.0850 254.3588 0002009 275.9690 102.7119  1.00267934 33955,2012-051A,38778,42165.812,1436.152,35796.148,35779.205,0
GENERATED VIA SPACETRACK.ORG API,18 SPCS,38778,ASTRA 2F,PAYLOAD,U,12051A,2024-07-02 13:06:58,788000,1.00268312,0.0002048,0.0837,253.7163,277.5967,334.6717,0,999,3396,0,1.51e-06,0,4357586,0 ASTRA 2F,1 38778U 12051A   24184.54651375  .00000151  00000-0  00000-0 0  9994,2 38778   0.0837 253.7163 0002048 277.5967 334.6717  1.00268312 33962,2012-051A,38778,42165.706,1436.147,35796.206,35778.935,0
GENERATED VIA SPACETRACK.ORG API,18 SPCS,38778,ASTRA 2F,PAYLOAD,U,12051A,2024-07-02 19:59:05,463168,1.00268496,0.0002056,0.083,253.4879,278.1301,77.6731,0,999,3396,0,1.51e-06,0,4357884,0 ASTRA 2F,1 38778U 12051A   24184.83270212  .00000151  00000-0  00000-0 0  9993,2 38778   0.0830 253.4879 0002056 278.1301  77.6731  1.00268496 33967,2012-051A,38778,42165.654,1436.144,35796.188,35778.85,0
GENERATED VIA SPACETRACK.ORG API,18 SPCS,38778,ASTRA 2F,PAYLOAD,U,12051A,2024-07-03 02:18:42,660576,1.00268664,0.0002068,0.0826,253.1666,279.2846,172.0021,0,999,4313,0,1.51e-06,0,4358059,0 ASTRA 2F,1 38778U 12051A   24185.09632709  .00000151  00000-0  00000+0 0  9994,2 38778   0.0826 253.1666 0002068 279.2846 172.0021  1.00268664 43131,2012-051A,38778,42165.607,1436.142,35796.192,35778.752,0
GENERATED VIA SPACETRACK.ORG API,18 SPCS,38778,ASTRA 2F,PAYLOAD,U,12051A,2024-07-03 22:15:42,848928,1.00269179,0.0002098,0.0806,252.1426,280.9992,111.3731,0,999,3397,0,1.49e-06,0,4359094,0 ASTRA 2F,1 38778U 12051A   24185.92757927  .00000149  00000-0  00000-0 0  9994,2 38778   0.0806 252.1426 0002098 280.9992 111.3731  1.00269179 33973,2012-051A,38778,42165.463,1436.134,35796.174,35778.481,0
GENERATED VIA SPACETRACK.ORG API,18 SPCS,38778,ASTRA 2F,PAYLOAD,U,12051A,2024-07-04 03:51:42,691392,1.00269316,0.0002107,0.0802,251.996,281.6406,195.1058,0,999,4314,0,1.49e-06,0,4359501,0 ASTRA 2F,1 38778U 12051A   24186.16091078  .00000149  00000-0  00000+0 0  9998,2 38778   0.0802 251.9960 0002107 281.6406 195.1058  1.00269316 43143,2012-051A,38778,42165.424,1436.132,35796.173,35778.405,0
GENERATED VIA SPACETRACK.ORG API,18 SPCS,38778,ASTRA 2F,PAYLOAD,U,12051A,2024-07-04 13:12:12,546144,1.00269557,0.0002121,0.0793,251.4257,282.2892,335.5323,0,999,3398,0,1.48e-06,0,4360440,0 ASTRA 2F,1 38778U 12051A   24186.55014521  .00000148  00000-0  00000-0 0  9999,2 38778   0.0793 251.4257 0002121 282.2892 335.5323  1.00269557 33981,2012-051A,38778,42165.357,1436.129,35796.165,35778.278,0
GENERATED VIA SPACETRACK.ORG API,18 SPCS,38778,ASTRA 2F,PAYLOAD,U,12051A,2024-07-04 21:32:52,753920,1.00269789,0.0002136,0.0783,251.0019,282.9978,100.7552,0,999,3398,0,1.47e-06,0,4361047,0 ASTRA 2F,1 38778U 12051A   24186.89783280  .00000147  00000-0  00000-0 0  9990,2 38778   0.0783 251.0019 0002136 282.9978 100.7552  1.00269789 33983,2012-051A,38778,42165.292,1436.125,35796.163,35778.15,0
GENERATED VIA SPACETRACK.ORG API,18 SPCS,38778,ASTRA 2F,PAYLOAD,U,12051A,2024-07-05 04:39:28,562976,1.00269954,0.0002138,0.0778,250.7661,283.5466,207.3815,0,999,4315,0,1.47e-06,0,4361602,0 ASTRA 2F,1 38778U 12051A   24187.19408059  .00000147  00000-0  00000+0 0  9991,2 38778   0.0778 250.7661 0002138 283.5466 207.3815  1.00269954 43157,2012-051A,38778,42165.245,1436.123,35796.125,35778.095,0
GENERATED VIA SPACETRACK.ORG API,18 SPCS,38778,ASTRA 2F,PAYLOAD,U,12051A,2024-07-05 22:12:42,539904,1.00270415,0.0002177,0.0759,249.7557,284.7162,111.2473,0,999,3399,0,1.46e-06,0,4362844,0 ASTRA 2F,1 38778U 12051A   24187.92549236  .00000146  00000-0  00000-0 0  9995,2 38778   0.0759 249.7557 0002177 284.7162 111.2473  1.00270415 33995,2012-051A,38778,42165.116,1436.117,35796.16,35777.802,0
GENERATED VIA SPACETRACK.ORG API,18 SPCS,38778,ASTRA 2F,PAYLOAD,U,12051A,2024-07-06 11:34:09,277248,1.00270743,0.0002199,0.0745,248.9265,285.8019,311.8985,0,999,4316,0,1.46e-06,0,4364041,0 ASTRA 2F,1 38778U 12051A   24188.48205182  .00000146  00000-0  00000+0 0  9995,2 38778   0.0745 248.9265 0002199 285.8019 311.8985  1.00270743 43164,2012-051A,38778,42165.024,1436.112,35796.161,35777.617,0
GENERATED VIA SPACETRACK.ORG API,18 SPCS,38778,ASTRA 2F,PAYLOAD,U,12051A,2024-07-06 13:17:17,836224,1.0027079,0.0002206,0.0744,248.8944,285.8003,337.7882,0,999,3400,0,1.46e-06,0,4364218,0 ASTRA 2F,1 38778U 12051A   24188.55367866  .00000146  00000-0  00000-0 0  9992,2 38778   0.0744 248.8944 0002206 285.8003 337.7882  1.00270790 34006,2012-051A,38778,42165.011,1436.111,35796.177,35777.574,0
GENERATED VIA SPACETRACK.ORG API,18 SPCS,38778,ASTRA 2F,PAYLOAD,U,12051A,2024-07-06 22:50:25,366272,1.00271036,0.0002223,0.0733,248.3771,286.2227,121.5557,0,999,3400,0,1.46e-06,0,4364786,0 ASTRA 2F,1 38778U 12051A   24188.95168248  .00000146  00000-0  00000-0 0  9999,2 38778   0.0733 248.3771 0002223 286.2227 121.5557  1.00271036 34001,2012-051A,38778,42164.942,1436.108,35796.18,35777.434,0
GENERATED VIA SPACETRACK.ORG API,18 SPCS,38778,ASTRA 2F,PAYLOAD,U,12051A,2024-07-07 11:36:47,245824,1.00271339,0.0002244,0.0719,247.7824,286.9119,313.5757,0,999,4317,0,1.46e-06,0,4365660,0 ASTRA 2F,1 38778U 12051A   24189.48388016  .00000146  00000-0  00000+0 0  9994,2 38778   0.0719 247.7824 0002244 286.9119 313.5757  1.00271339 43176,2012-051A,38778,42164.857,1436.103,35796.184,35777.26,0
GENERATED VIA SPACETRACK.ORG API,18 SPCS,38778,ASTRA 2F,PAYLOAD,U,12051A,2024-07-07 13:19:55,653600,1.00271386,0.0002251,0.0718,247.7591,286.9166,339.4499,0,999,3401,0,1.46e-06,0,4365919,0 ASTRA 2F,1 38778U 12051A   24189.55550525  .00000146  00000-0  00000-0 0  9999,2 38778   0.0718 247.7591 0002251 286.9166 339.4499  1.00271386 34011,2012-051A,38778,42164.844,1436.103,35796.2,35777.218,0
GENERATED VIA SPACETRACK.ORG API,18 SPCS,38778,ASTRA 2F,PAYLOAD,U,12051A,2024-07-08 11:39:17,93664,1.00271918,0.0002295,0.0693,246.6782,287.764,315.4393,0,999,4318,0,1.48e-06,0,4367545,0 ASTRA 2F,1 38778U 12051A   24190.48561451  .00000148  00000-0  00000+0 0  9994,2 38778   0.0693 246.6782 0002295 287.7640 315.4393  1.00271918 43183,2012-051A,38778,42164.695,1436.095,35796.236,35776.883,0
